ONEWEB-0095             
1 45436U 20020N   26022.31995847 -.00000355  00000+0 -10382-2 0  9994
2 45436  87.8820  50.0964 0002462 106.7256 253.4142 13.11414887283554
ONEWEB-0092             
1 45437U 20020P   26022.13927082  .00001322  00000+0  36930-2 0  9991
2 45437  87.8824  50.1322 0002016  97.4082 262.7275 13.11423192283645
ONEWEB-0085             
1 45438U 20020Q   26022.32830021 -.00000545  00000+0 -15745-2 0  9998
2 45438  87.8816  50.1006 0001851  93.9468 266.1872 13.11417306283552
ONEWEB-0096             
1 45439U 20020R   26022.32998929 -.00000560  00000+0 -16155-2 0  9994
2 45439  87.8829  50.0843 0001854  92.1432 267.9908 13.11415377283544
ONEWEB-0037             
1 45440U 20020S   26022.31051519  .00000046  00000+0  95120-4 0  9998
2 45440  87.8835  50.0617 0001918  95.6918 264.4429 13.11414855283573
ONEWEB-0042             
1 45441U 20020T   26022.31968637 -.00000374  00000+0 -10906-2 0  9990
2 45441  87.8823  50.0854 0001910  93.2796 266.8550 13.11416629283543
ONEWEB-0098             
1 45442U 20020U   26022.08670345 -.00000287  00000+0 -84450-3 0  9990
2 45442  87.8824  50.1438 0001748  95.4960 264.6367 13.11415885283499
ONEWEB-0055             
1 45443U 20020V   26022.29864390  .00000480  00000+0  13181-2 0  9994
2 45443  87.8823  50.1016 0001758  95.0470 265.0859 13.11416717283490
ONEWEB-0093             
1 45444U 20020W   26022.04530113  .00000194  00000+0  51025-3 0  9993
2 45444  87.8829  50.1403 0002055  83.3957 276.7405 13.11417776283524
ONEWEB-0029             
1 45445U 20020X   26022.13757532  .00000592  00000+0  16338-2 0  9999
2 45445  87.8826  50.1344 0001810  89.7063 270.4273 13.11417075283517
ONEWEB-0068             
1 45446U 20020Y   26022.04502275  .00000233  00000+0  62020-3 0  9994
2 45446  87.8829  50.1422 0001809  87.7046 272.4289 13.11419946283445
ONEWEB-0046             
1 45447U 20020Z   26022.34186781 -.00000242  00000+0 -71876-3 0  9999
2 45447  87.8829  50.0904 0002054  90.5781 269.5582 13.11418724283492
ONEWEB-0063             
1 45448U 20020AA  26022.06551807  .00000545  00000+0  15023-2 0  9999
2 45448  87.8827  50.1434 0002053  95.4737 264.6625 13.11416950283543
ONEWEB-0019             
1 45449U 20020AB  26022.33325918 -.00000533  00000+0 -15385-2 0  9992
2 45449  87.8813  50.0892 0001682  97.1212 263.0108 13.11417504283422
ONEWEB-0094             
1 45450U 20020AC  26022.32955469  .00000104  00000+0  23482-3 0  9993
2 45450  87.9098  34.8227 0001724  88.4342 271.6987 13.17650665287108
ONEWEB-0087             
1 45451U 20020AD  26022.30443236  .00000264  00000+0  70817-3 0  9997
2 45451  87.8837  50.0581 0001787  85.1376 274.9956 13.11414057283466
ONEWEB-0082             
1 45452U 20020AE  26022.30117747  .00000385  00000+0  10491-2 0  9998
2 45452  87.8837  50.0840 0001738  86.5062 273.6265 13.11416619283553
