[{"OBJECT_NAME":"ONEWEB-0095","OBJECT_ID":"2020-020N","EPOCH":"2026-01-22T07:40:44.411808","MEAN_MOTION":13.11414887,"ECCENTRICITY":0.0002462,"INCLINATION":87.882,"RA_OF_ASC_NODE":50.0964,"ARG_OF_PERICENTER":106.7256,"MEAN_ANOMALY":253.4142,"EPHEMERIS_TYPE":0,"CLASSIFICATION_TYPE":"U","NORAD_CAT_ID":45436,"ELEMENT_SET_NO":999,"REV_AT_EPOCH":28355,"BSTAR":-0.0010382306,"MEAN_MOTION_DOT":-3.55e-6,"MEAN_MOTION_DDOT":0},{"OBJECT_NAME":"ONEWEB-0092","OBJECT_ID":"2020-020P","EPOCH":"2026-01-22T03:20:32.998848","MEAN_MOTION":13.11423192,"ECCENTRICITY":0.00020161,"INCLINATION":87.8824,"RA_OF_ASC_NODE":50.1322,"ARG_OF_PERICENTER":97.4082,"MEAN_ANOMALY":262.7275,"EPHEMERIS_TYPE":0,"CLASSIFICATION_TYPE":"U","NORAD_CAT_ID":45437,"ELEMENT_SET_NO":999,"REV_AT_EPOCH":28364,"BSTAR":0.0036929836,"MEAN_MOTION_DOT":1.322e-5,"MEAN_MOTION_DDOT":0},{"OBJECT_NAME":"ONEWEB-0085","OBJECT_ID":"2020-020Q","EPOCH":"2026-01-22T07:52:45.138144","MEAN_MOTION":13.11417306,"ECCENTRICITY":0.00018517,"INCLINATION":87.8816,"RA_OF_ASC_NODE":50.1006,"ARG_OF_PERICENTER":93.9468,"MEAN_ANOMALY":266.1872,"EPHEMERIS_TYPE":0,"CLASSIFICATION_TYPE":"U","NORAD_CAT_ID":45438,"ELEMENT_SET_NO":999,"REV_AT_EPOCH":28355,"BSTAR":-0.0015744925,"MEAN_MOTION_DOT":-5.45e-6,"MEAN_MOTION_DDOT":0},{"OBJECT_NAME":"ONEWEB-0096","OBJECT_ID":"2020-020R","EPOCH":"2026-01-22T07:55:11.074656","MEAN_MOTION":13.11415377,"ECCENTRICITY":0.00018548,"INCLINATION":87.8829,"RA_OF_ASC_NODE":50.0843,"ARG_OF_PERICENTER":92.1432,"MEAN_ANOMALY":267.9908,"EPHEMERIS_TYPE":0,"CLASSIFICATION_TYPE":"U","NORAD_CAT_ID":45439,"ELEMENT_SET_NO":999,"REV_AT_EPOCH":28354,"BSTAR":-0.0016154875,"MEAN_MOTION_DOT":-5.6e-6,"MEAN_MOTION_DDOT":0},{"OBJECT_NAME":"ONEWEB-0037","OBJECT_ID":"2020-020S","EPOCH":"2026-01-22T07:27:08.512416","MEAN_MOTION":13.11414855,"ECCENTRICITY":0.00019184,"INCLINATION":87.8835,"RA_OF_ASC_NODE":50.0617,"ARG_OF_PERICENTER":95.6918,"MEAN_ANOMALY":264.4429,"EPHEMERIS_TYPE":0,"CLASSIFICATION_TYPE":"U","NORAD_CAT_ID":45440,"ELEMENT_SET_NO":999,"REV_AT_EPOCH":28357,"BSTAR":9.5120238e-5,"MEAN_MOTION_DOT":4.6e-7,"MEAN_MOTION_DDOT":0},{"OBJECT_NAME":"ONEWEB-0042","OBJECT_ID":"2020-020T","EPOCH":"2026-01-22T07:40:20.902368","MEAN_MOTION":13.11416629,"ECCENTRICITY":0.00019104,"INCLINATION":87.8823,"RA_OF_ASC_NODE":50.0854,"ARG_OF_PERICENTER":93.2796,"MEAN_ANOMALY":266.855,"EPHEMERIS_TYPE":0,"CLASSIFICATION_TYPE":"U","NORAD_CAT_ID":45441,"ELEMENT_SET_NO":999,"REV_AT_EPOCH":28354,"BSTAR":-0.0010905838,"MEAN_MOTION_DOT":-3.74e-6,"MEAN_MOTION_DDOT":0},{"OBJECT_NAME":"ONEWEB-0098","OBJECT_ID":"2020-020U","EPOCH":"2026-01-22T02:04:51.178080","MEAN_MOTION":13.11415885,"ECCENTRICITY":0.00017488,"INCLINATION":87.8824,"RA_OF_ASC_NODE":50.1438,"ARG_OF_PERICENTER":95.496,"MEAN_ANOMALY":264.6367,"EPHEMERIS_TYPE":0,"CLASSIFICATION_TYPE":"U","NORAD_CAT_ID":45442,"ELEMENT_SET_NO":999,"REV_AT_EPOCH":28349,"BSTAR":-0.00084450051,"MEAN_MOTION_DOT":-2.87e-6,"MEAN_MOTION_DDOT":0},{"OBJECT_NAME":"ONEWEB-0055","OBJECT_ID":"2020-020V","EPOCH":"2026-01-22T07:10:02.832960","MEAN_MOTION":13.11416717,"ECCENTRICITY":0.00017584,"INCLINATION":87.8823,"RA_OF_ASC_NODE":50.1016,"ARG_OF_PERICENTER":95.047,"MEAN_ANOMALY":265.0859,"EPHEMERIS_TYPE":0,"CLASSIFICATION_TYPE":"U","NORAD_CAT_ID":45443,"ELEMENT_SET_NO":999,"REV_AT_EPOCH":28349,"BSTAR":0.0013180545,"MEAN_MOTION_DOT":4.8e-6,"MEAN_MOTION_DDOT":0},{"OBJECT_NAME":"ONEWEB-0093","OBJECT_ID":"2020-020W","EPOCH":"2026-01-22T01:05:14.017632","MEAN_MOTION":13.11417776,"ECCENTRICITY":0.00020558,"INCLINATION":87.8829,"RA_OF_ASC_NODE":50.1403,"ARG_OF_PERICENTER":83.3957,"MEAN_ANOMALY":276.7405,"EPHEMERIS_TYPE":0,"CLASSIFICATION_TYPE":"U","NORAD_CAT_ID":45444,"ELEMENT_SET_NO":999,"REV_AT_EPOCH":28352,"BSTAR":0.00051025435,"MEAN_MOTION_DOT":1.94e-6,"MEAN_MOTION_DDOT":0},{"OBJECT_NAME":"ONEWEB-0029","OBJECT_ID":"2020-020X","EPOCH":"2026-01-22T03:18:06.507648","MEAN_MOTION":13.11417075,"ECCENTRICITY":0.00018104,"INCLINATION":87.8826,"RA_OF_ASC_NODE":50.1344,"ARG_OF_PERICENTER":89.7063,"MEAN_ANOMALY":270.4273,"EPHEMERIS_TYPE":0,"CLASSIFICATION_TYPE":"U","NORAD_CAT_ID":45445,"ELEMENT_SET_NO":999,"REV_AT_EPOCH":28351,"BSTAR":0.0016338438,"MEAN_MOTION_DOT":5.92e-6,"MEAN_MOTION_DDOT":0},{"OBJECT_NAME":"ONEWEB-0068","OBJECT_ID":"2020-020Y","EPOCH":"2026-01-22T01:04:49.965600","MEAN_MOTION":13.11419946,"ECCENTRICITY":0.00018096,"INCLINATION":87.8829,"RA_OF_ASC_NODE":50.1422,"ARG_OF_PERICENTER":87.7046,"MEAN_ANOMALY":272.4289,"EPHEMERIS_TYPE":0,"CLASSIFICATION_TYPE":"U","NORAD_CAT_ID":45446,"ELEMENT_SET_NO":999,"REV_AT_EPOCH":28344,"BSTAR":0.00062020013,"MEAN_MOTION_DOT":2.33e-6,"MEAN_MOTION_DDOT":0},{"OBJECT_NAME":"ONEWEB-0046","OBJECT_ID":"2020-020Z","EPOCH":"2026-01-22T08:12:17.378784","MEAN_MOTION":13.11418724,"ECCENTRICITY":0.00020541,"INCLINATION":87.8829,"RA_OF_ASC_NODE":50.0904,"ARG_OF_PERICENTER":90.5781,"MEAN_ANOMALY":269.5582,"EPHEMERIS_TYPE":0,"CLASSIFICATION_TYPE":"U","NORAD_CAT_ID":45447,"ELEMENT_SET_NO":999,"REV_AT_EPOCH":28349,"BSTAR":-0.00071875547,"MEAN_MOTION_DOT":-2.42e-6,"MEAN_MOTION_DDOT":0},{"OBJECT_NAME":"ONEWEB-0063","OBJECT_ID":"2020-020AA","EPOCH":"2026-01-22T01:34:20.761248","MEAN_MOTION":13.1141695,"ECCENTRICITY":0.0002053,"INCLINATION":87.8827,"RA_OF_ASC_NODE":50.1434,"ARG_OF_PERICENTER":95.4737,"MEAN_ANOMALY":264.6625,"EPHEMERIS_TYPE":0,"CLASSIFICATION_TYPE":"U","NORAD_CAT_ID":45448,"ELEMENT_SET_NO":999,"REV_AT_EPOCH":28354,"BSTAR":0.0015022701,"MEAN_MOTION_DOT":5.45e-6,"MEAN_MOTION_DDOT":0},{"OBJECT_NAME":"ONEWEB-0019","OBJECT_ID":"2020-020AB","EPOCH":"2026-01-22T07:59:53.593152","MEAN_MOTION":13.11417504,"ECCENTRICITY":0.00016828,"INCLINATION":87.8813,"RA_OF_ASC_NODE":50.0892,"ARG_OF_PERICENTER":97.1212,"MEAN_ANOMALY":263.0108,"EPHEMERIS_TYPE":0,"CLASSIFICATION_TYPE":"U","NORAD_CAT_ID":45449,"ELEMENT_SET_NO":999,"REV_AT_EPOCH":28342,"BSTAR":-0.0015384681,"MEAN_MOTION_DOT":-5.33e-6,"MEAN_MOTION_DDOT":0},{"OBJECT_NAME":"ONEWEB-0094","OBJECT_ID":"2020-020AC","EPOCH":"2026-01-22T07:54:33.525216","MEAN_MOTION":13.17650665,"ECCENTRICITY":0.0001724,"INCLINATION":87.9098,"RA_OF_ASC_NODE":34.8227,"ARG_OF_PERICENTER":88.4342,"MEAN_ANOMALY":271.6987,"EPHEMERIS_TYPE":0,"CLASSIFICATION_TYPE":"U","NORAD_CAT_ID":45450,"ELEMENT_SET_NO":999,"REV_AT_EPOCH":28710,"BSTAR":0.00023482106,"MEAN_MOTION_DOT":1.04e-6,"MEAN_MOTION_DDOT":0},{"OBJECT_NAME":"ONEWEB-0087","OBJECT_ID":"2020-020AD","EPOCH":"2026-01-22T07:18:22.955904","MEAN_MOTION":13.11414057,"ECCENTRICITY":0.00017874,"INCLINATION":87.8837,"RA_OF_ASC_NODE":50.0581,"ARG_OF_PERICENTER":85.1376,"MEAN_ANOMALY":274.9956,"EPHEMERIS_TYPE":0,"CLASSIFICATION_TYPE":"U","NORAD_CAT_ID":45451,"ELEMENT_SET_NO":999,"REV_AT_EPOCH":28346,"BSTAR":0.00070817307,"MEAN_MOTION_DOT":2.64e-6,"MEAN_MOTION_DDOT":0},{"OBJECT_NAME":"ONEWEB-0082","OBJECT_ID":"2020-020AE","EPOCH":"2026-01-22T07:13:41.733408","MEAN_MOTION":13.11416619,"ECCENTRICITY":0.00017384,"INCLINATION":87.8837,"RA_OF_ASC_NODE":50.084,"ARG_OF_PERICENTER":86.5062,"MEAN_ANOMALY":273.6265,"EPHEMERIS_TYPE":0,"CLASSIFICATION_TYPE":"U","NORAD_CAT_ID":45452,"ELEMENT_SET_NO":999,"REV_AT_EPOCH":28355,"BSTAR":0.0010491013,"MEAN_MOTION_DOT":3.85e-6,"MEAN_MOTION_DDOT":0}]
